NAVSTAR 77 (USA 289)    
1 43873U 18109A   24045.58904382 -.00000011  00000+0  00000+0 0  9999
2 43873  55.2483 125.9122 0028842 193.9476 273.8377  2.00573820 37957
